ORBCOMM FM05            
1 25117U 97084F   24248.53597180  .00007890  00000+0  23478-2 0  9991
2 25117  45.0148 297.3995 0004498 253.2552 106.7805 14.43532135399293
ORBCOMM FM06            
1 25118U 97084G   24248.58169515  .00008034  00000+0  23844-2 0  9992
2 25118  45.0139 297.2687 0003935 263.9602 221.4901 14.43641480400211
ORBCOMM FM07            
1 25119U 97084H   24248.55655893  .00007383  00000+0  21996-2 0  9991
2 25119  45.0137 298.0067 0004869 244.0968 115.9381 14.43537938400225
ORBCOMM FM03            
1 25158U 98007B   24248.77220283  .00004882  00000+0  18129-2 0  9990
2 25158 107.9725 269.8893 0045790  25.5486 334.7903 14.32798786383136
ORBCOMM FM04            
1 25159U 98007C   24248.73886996  .00005725  00000+0  21105-2 0  9991
2 25159 107.9709 272.8417 0041405  22.9396 337.3581 14.33069962383303
ORBCOMM FM17            
1 25413U 98046A   24249.14263768  .00003917  00000+0  14496-2 0  9995
2 25413  44.9939 161.6004 0001670 256.5490 103.5170 14.33650415362413
ORBCOMM FM18            
1 25414U 98046B   24248.90414018  .00005532  00000+0  19108-2 0  9995
2 25414  44.9922  87.2495 0003646 274.4095  85.6336 14.36588072363190
ORBCOMM FM19            
1 25415U 98046C   24248.76411208  .00006525  00000+0  22525-2 0  9998
2 25415  44.9935  89.4830 0002553 261.1849 198.8781 14.36421609363135
